SKYSAT-C1               
1 41601U 16040C   26192.63835800  .00005514  00000+0  15589-3 0  9991
2 41601  96.9557 223.0369 0000645 355.4804   4.6435 15.36708815561620
LAPAN-A3                
1 41603U 16040E   26194.29751193  .00001969  00000+0  63531-4 0  9990
2 41603  97.1503 189.5895 0008276 284.5908  75.4417 15.33270300558814
GAOFEN-3                
1 41727U 16049A   26194.30884117  .00000130  00000+0  52559-4 0  9998
2 41727  98.4014 201.7005 0001791  86.1635 273.9759 14.42218927522417
SKYSAT-C4               
1 41771U 16058B   26193.59115844  .00011647  00000+0  21392-3 0  9996
2 41771  96.9166 214.3113 0003375 121.6663 238.4919 15.49378795549403
SKYSAT-C5               
1 41772U 16058C   26193.66676796  .00004512  00000+0  14077-3 0  9998
2 41772  97.0459 233.1668 0002262 167.5326 192.5974 15.33697336547658
SKYSAT-C2               
1 41773U 16058D   26193.56193375  .00007920  00000+0  18376-3 0  9997
2 41773  97.0160 214.7089 0001849   5.3443 354.7825 15.42640053548965
SKYSAT-C3               
1 41774U 16058E   26193.65796787  .00015667  00000+0  24693-3 0  9990
2 41774  96.8992 223.5415 0002413 136.6705 223.4740 15.53626037550064
ALSAT-1B                
1 41785U 16059C   26194.33795275  .00000479  00000+0  83183-4 0  9995
2 41785  97.7754 201.9730 0010193 135.0740 225.1295 14.72294830524425
PATHFINDER 1            
1 41787U 16059E   26194.31619109  .00000303  00000+0  60990-4 0  9993
2 41787  97.8176 192.4142 0029734 121.4291 238.9828 14.67691901523548
SCATSAT 1               
1 41790U 16059H   26193.70947986  .00000680  00000+0  95986-4 0  9997
2 41790  98.1179 257.7377 0055052 164.4981 195.7932 14.79583421105361
GOKTURK 1A              
1 41875U 16073A   26194.30749631  .00000277  00000+0  63490-4 0  9998
2 41875  98.1224  88.5692 0001431  77.9957 282.1406 14.62792687512647
RESOURCESAT-2A          
1 41877U 16074A   26194.32343395  .00000242  00000+0  13049-3 0  9996
2 41877  98.7527 267.6129 0002495  33.3344 326.7990 14.21608981498018
CARTOSAT-2D             
1 41948U 17008A   26194.30637995  .00002294  00000+0  11195-3 0  9992
2 41948  97.4098 253.1221 0005801 144.7732 215.3887 15.19275804521546
SENTINEL-2B             
1 42063U 17013A   26194.29142073 -.00000131  00000+0 -33237-4 0  9995
2 42063  98.5691 268.6965 0001217  91.3642 268.7680 14.30814236488372
CARTOSAT-2E             
1 42767U 17036C   26194.32411091  .00002260  00000+0  11049-3 0  9993
2 42767  97.4265 253.6938 0003080 194.9998 165.1146 15.19244924502111
FORMOSAT-5              
1 42920U 17049A   26194.25886515  .00000045  00000+0  22354-4 0  9998
2 42920  98.2247 268.9886 0011461   9.7389 350.4026 14.50907523470453
SENTINEL-5P             
1 42969U 17064A   26194.28166183 -.00000002  00000+0  19924-4 0  9996
2 42969  98.7929 136.2282 0001102  92.7195 267.4107 14.19523086453263
SKYSAT-C11              
1 42987U 17068A   26194.31653583  .00019386  00000+0  24810-3 0  9992
2 42987  97.4370 344.3152 0001074 158.8590 201.2711 15.59252022487312
SKYSAT-C10              
1 42988U 17068B   26193.91387030  .00007440  00000+0  22092-3 0  9997
2 42988  97.4529 331.0233 0001412 109.5205 250.6191 15.35089047486301
SKYSAT-C9               
1 42989U 17068C   26194.32796562  .00007895  00000+0  18594-3 0  9994
2 42989  97.4449 332.6299 0008800  50.8893 309.3135 15.42184723486788
SKYSAT-C8               
1 42990U 17068D   26193.97585181  .00007160  00000+0  19718-3 0  9993
2 42990  97.4545 330.9850 0001235 101.6418 258.4966 15.37465076486271
SKYSAT-C7               
1 42991U 17068E   26193.90517969  .00006935  00000+0  19129-3 0  9991
2 42991  97.4558 331.9045 0005900  29.1187 331.0385 15.37415204486320
SKYSAT-C6               
1 42992U 17068F   26193.97538933  .00006056  00000+0  18567-3 0  9992
2 42992  97.4595 331.8393 0005139  94.7511 265.4318 15.34147028486273
CARTOSAT-2F             
1 43111U 18004A   26194.29081727  .00003074  00000+0  14907-3 0  9998
2 43111  97.4783 253.6687 0002573 139.7372 220.4054 15.19263559471292
GAOFEN-1 02             
1 43259U 18031A   26194.32255591  .00000064  00000+0  16620-4 0  9998
2 43259  98.0522 256.7747 0001588 298.7297  61.3752 14.76469028446550
GAOFEN-1 03             
1 43260U 18031B   26194.30064183  .00000347  00000+0  57225-4 0  9993
2 43260  98.0505 256.6085 0002557  20.9571 339.1743 14.76460985446542
GAOFEN-1 04             
1 43262U 18031D   26194.27635523  .00000671  00000+0  10387-3 0  9990
2 43262  98.0523 256.7784 0001376  58.4177 301.7167 14.76470467446537
SENTINEL-3B             
1 43437U 18039A   26194.20787993  .00000001  00000+0  18273-4 0  9994
2 43437  98.6237 261.3653 0001093 119.4777 240.6513 14.26735949427838
GAOFEN-5 01             
1 43461U 18043A   26193.88800439  .00000139  00000+0  38748-4 0  9991
2 43461  98.4588 166.0166 0002227  36.7715 323.3637 14.60622425435449
GAOFEN-6                
1 43484U 18048A   26194.29879566  .00000328  00000+0  54656-4 0  9990
2 43484  98.0966 256.9962 0012159  87.1697 273.0904 14.76382514437244
